GPS BIIR-2  (PRN 13)    
1 24876U 97035A   21251.16570798  .00000025  00000-0  00000-0 0  9992
2 24876  55.4781 166.6868 0052050  53.6834 306.8275  2.00562359176996
GPS BIIR-4  (PRN 20)    
1 26360U 00025A   21251.57106425  .00000016  00000-0  00000-0 0  9992
2 26360  53.8353  90.5341 0055008 173.0296 206.7489  2.00566054156325
GPS BIIR-8  (PRN 16)    
1 27663U 03005A   21250.80951536  .00000025  00000-0  00000-0 0  9996
2 27663  55.7130 284.2755 0120471  38.0451 131.0042  2.00554373136343
GPS BIIR-9  (PRN 21)    
1 27704U 03010A   21250.80700551 -.00000053  00000-0  00000-0 0  9999
2 27704  54.9022  34.7710 0242398 297.3376  85.5916  2.00567072135148
GPS BIIR-10 (PRN 22)    
1 28129U 03058A   21250.85702714  .00000020  00000-0  00000-0 0  9994
2 28129  53.6450  93.2087 0069399 307.4329  52.0246  2.00555302129823
GPS BIIR-11 (PRN 19)    
1 28190U 04009A   21251.36624046 -.00000065  00000-0  00000-0 0  9997
2 28190  56.1491 345.1601 0089410 111.3994 259.4395  2.00566688127994
GPS BIIR-13 (PRN 02)    
1 28474U 04045A   21251.46529955 -.00000053  00000-0  00000-0 0  9993
2 28474  55.2351  34.7784 0204789 274.1922  80.3979  2.00554649123476
GPS BIIRM-1 (PRN 17)    
1 28874U 05038A   21251.21741543 -.00000062  00000-0  00000-0 0  9992
2 28874  56.2281 342.5854 0137741 270.6937  16.3861  2.00565757116878
GPS BIIRM-2 (PRN 31)    
1 29486U 06042A   21250.93856059  .00000038  00000-0  00000-0 0  9997
2 29486  54.7588 220.5167 0100986  15.4019 344.0643  2.00571370109420
GPS BIIRM-3 (PRN 12)    
1 29601U 06052A   21251.88414882  .00000022  00000-0  00000-0 0  9999
2 29601  55.7113 283.1612 0080135  69.8998 291.0222  2.00562530108461
GPS BIIRM-4 (PRN 15)    
1 32260U 07047A   21252.18703002  .00000025  00000-0  00000+0 0  9990
2 32260  53.2464 152.2009 0134385  58.1604 303.2058  2.00562956101891
GPS BIIRM-5 (PRN 29)    
1 32384U 07062A   21250.87543375 -.00000063  00000-0  00000-0 0  9997
2 32384  56.3384 343.3248 0017924 138.4637 123.4166  2.00574627100549
GPS BIIRM-6 (PRN 07)    
1 32711U 08012A   21251.60532476  .00000041  00000-0  00000-0 0  9994
2 32711  54.5131 219.4895 0154490 228.3594 130.2790  2.00555553 98806
GPS BIIRM-8 (PRN 05)    
1 35752U 09043A   21250.34687274  .00000028  00000-0  00000-0 0  9999
2 35752  54.8620  96.9467 0059061  55.1491 128.1859  2.00574170 88383
GPS BIIF-1  (PRN 25)    
1 36585U 10022A   21251.41807128  .00000027  00000-0  00000-0 0  9993
2 36585  54.9884 278.8952 0096618  54.6977 305.1594  2.00574934 82636
GPS BIIF-2  (PRN 01)    
1 37753U 11036A   21251.30669372 -.00000044  00000-0  00000-0 0  9992
2 37753  56.4652  39.7090 0108989  50.0936 311.0121  2.00563656 74329
GPS BIIF-3  (PRN 24)    
1 38833U 12053A   21250.78899562  .00000032  00000-0  00000-0 0  9995
2 38833  53.5638 214.9379 0113592  42.3723 318.4657  2.00558290 64470
GPS BIIF-4  (PRN 27)    
1 39166U 13023A   21250.65330887 -.00000059  00000-0  00000-0 0  9999
2 39166  55.8672 339.0887 0092983  35.9108 324.7614  2.00567383 60912
GPS BIIF-5  (PRN 30)    
1 39533U 14008A   21251.15126679  .00000037  00000-0  00000-0 0  9994
2 39533  53.6649 220.4009 0054609 205.6736 154.0250  2.00565594 54729
GPS BIIF-6  (PRN 06)    
1 39741U 14026A   21251.42970443 -.00000045  00000-0  00000-0 0  9991
2 39741  56.4323  39.2313 0023587 299.4191  60.3539  2.00575931 53589
GPS BIIF-7  (PRN 09)    
1 40105U 14045A   21251.51885277  .00000026  00000-0  00000-0 0  9996
2 40105  54.6371 158.0624 0019054 105.4134 254.8487  2.00558529 51124
GPS BIIF-8  (PRN 03)    
1 40294U 14068A   21250.88813221  .00000030  00000-0  00000-0 0  9994
2 40294  55.6087  99.1154 0036741  53.5590 306.8747  2.00551661 50241
GPS BIIF-9  (PRN 26)    
1 40534U 15013A   21250.52852387  .00000030  00000-0  00000-0 0  9999
2 40534  53.8942 276.4107 0060105  14.6601 345.5712  2.00569614 46859
GPS BIIF-10 (PRN 08)    
1 40730U 15033A   21251.68528496 -.00000060  00000-0  00000-0 0  9992
2 40730  55.3728 338.0113 0064478   1.1768 358.8934  2.00566602 45047
GPS BIIF-11 (PRN 10)    
1 41019U 15062A   21251.23702635  .00000028  00000-0  00000-0 0  9998
2 41019  55.6006  98.9387 0070204 213.4634 146.1829  2.00563457 42873
GPS BIIF-12 (PRN 32)    
1 41328U 16007A   21250.82982937  .00000023  00000-0  00000-0 0  9995
2 41328  54.8621 158.6905 0052471 225.8805 133.7337  2.00558528 40870
GPS BIII-1  (PRN 04)    
1 43873U 18109A   21252.21254914  .00000028  00000-0  00000+0 0  9993
2 43873  55.0433 160.9953 0014087 194.6647 336.0576  2.00560340 20087
GPS BIII-2  (PRN 18)    
1 44506U 19056A   21251.65310296 -.00000045  00000-0  00000-0 0  9993
2 44506  55.5338  40.2793 0018781 175.3497 212.1779  2.00566642 15125
GPS BIII-3  (PRN 23)    
1 45854U 20041A   21252.44841140  .00000019  00000-0  00000+0 0  9990
2 45854  55.3159  97.5139 0015609 160.7247  23.5440  2.00563920  9091
GPS BIII-4  (PRN 14)    
1 46826U 20078A   21251.73313505  .00000022  00000-0  00000-0 0  9995
2 46826  54.7631 281.5185 0010961 189.5940 167.2019  2.00566543  6550
